{"type": "FeatureCollection", "features": [{"type": "Feature", "properties": {"name": "トイレ", "polygon_uuid": "da6eab00-362a-4f1a-a7d3-f7c675786372", "point_lng": 131.2429645, "point_lat": 33.958138}, "geometry": {"type": "Polygon", "coordinates": [[[131.242957, 33.958295], [131.242792, 33.958081], [131.24297, 33.95798], [131.243139, 33.958196], [131.242957, 33.958295]]]}}, {"type": "Feature", "properties": {"name": "駅舎", "polygon_uuid": "b9fa3f4b-fe01-4840-8215-25be0af1ff53", "point_lng": 131.24199225, "point_lat": 33.958822}, "geometry": {"type": "Polygon", "coordinates": [[[131.24195, 33.958911], [131.241871, 33.958834], [131.242036, 33.958739], [131.242112, 33.958804], [131.24195, 33.958911]]]}}, {"type": "Feature", "properties": {"name": "ファミマ", "polygon_uuid": "3bc6c4cf-89ea-42ec-82ec-7e9bef5199e8", "point_lng": 131.241476, "point_lat": 33.9576085}, "geometry": {"type": "Polygon", "coordinates": [[[131.24146, 33.957722], [131.241342, 33.957643], [131.241493, 33.957506], [131.241609, 33.957563], [131.24146, 33.957722]]]}}, {"type": "Feature", "properties": {"name": "museum", "polygon_uuid": "518feecd-5425-4b80-8c7b-3f18c4060b7a", "point_lng": 131.2853385, "point_lat": 33.9455455}, "geometry": {"type": "Polygon", "coordinates": [[[131.285138, 33.945617], [131.285138, 33.945458], [131.285539, 33.94547], [131.285539, 33.945637], [131.285138, 33.945617]]]}}, {"type": "Feature", "properties": {"name": "BLD1-west", "polygon_uuid": "b8b84156-8295-4a4e-aabf-ec43042c7371", "point_lng": 131.2969695, "point_lat": 33.9842955}, "geometry": {"type": "Polygon", "coordinates": [[[131.296722, 33.98475], [131.296722, 33.983841], [131.297217, 33.983841], [131.297217, 33.98475], [131.296722, 33.98475]]]}}, {"type": "Feature", "properties": {"name": "BLD2-south", "polygon_uuid": "abfb88c2-1bbb-4e63-bc25-5956a1d6dd3d", "point_lng": 131.2978745, "point_lat": 33.982535}, "geometry": {"type": "Polygon", "coordinates": [[[131.297688, 33.98271], [131.297688, 33.98236], [131.298061, 33.98236], [131.298061, 33.98271], [131.297688, 33.98271]]]}}, {"type": "Feature", "properties": {"name": "BLD3-north", "polygon_uuid": "f7eeab8e-acb7-44df-8391-d3ed1f0375d0", "point_lng": 131.298755, "point_lat": 33.9856055}, "geometry": {"type": "Polygon", "coordinates": [[[131.298207, 33.985794], [131.298207, 33.985417], [131.299303, 33.985417], [131.299303, 33.985794], [131.298207, 33.985794]]]}}, {"type": "Feature", "properties": {"name": "YCAM", "polygon_uuid": "06cc6190-e523-4900-b63e-8fad43e07afd", "point_lng": 131.46727825, "point_lat": 34.16958425}, "geometry": {"type": "Polygon", "coordinates": [[[131.467761, 34.170203], [131.466469, 34.169262], [131.466798, 34.168976], [131.468085, 34.169896], [131.467761, 34.170203]]]}}, {"type": "Feature", "properties": {"name": "駅舎トイレ", "polygon_uuid": "c425a2bb-703d-44d6-9bb0-8684540cc595", "point_lng": 131.460209, "point_lat": 34.159901}, "geometry": {"type": "Polygon", "coordinates": [[[131.460236, 34.15996], [131.46013, 34.159891], [131.460181, 34.159844], [131.460289, 34.159909], [131.460236, 34.15996]]]}}, {"type": "Feature", "properties": {"name": "お店", "polygon_uuid": "5ac11dd0-03ae-44c3-af51-124005079a9e", "point_lng": 131.45998825, "point_lat": 34.1600725}, "geometry": {"type": "Polygon", "coordinates": [[[131.46006, 34.160067], [131.460008, 34.160135], [131.459909, 34.160074], [131.459976, 34.160014], [131.46006, 34.160067]]]}}, {"type": "Feature", "properties": {"name": "足湯", "polygon_uuid": "d8b75784-8fa0-4432-bd4a-402775a9262d", "point_lng": 131.4599485, "point_lat": 34.159755167}, "geometry": {"type": "Polygon", "coordinates": [[[131.460025, 34.159749], [131.459961, 34.159832], [131.459905, 34.159797], [131.45995, 34.159747], [131.459907, 34.15972], [131.459943, 34.159686], [131.460025, 34.159749]]]}}, {"type": "Feature", "properties": {"name": "維新ホール", "polygon_uuid": "0d6cab57-c47b-4e8b-ac8c-d342fb7c1fab", "point_lng": 131.394427167, "point_lat": 34.093044056}, "geometry": {"type": "Polygon", "coordinates": [[[131.39486, 34.093251], [131.394824, 34.093281], [131.394824, 34.093278], [131.394824, 34.093278], [131.394773, 34.093232], [131.394552, 34.093385], [131.394639, 34.093493], [131.394575, 34.093557], [131.393752, 34.09301], [131.394017, 34.092782], [131.393904, 34.092693], [131.39394, 34.092644], [131.394146, 34.092774], [131.394179, 34.092738], [131.394117, 34.092633], [131.394238, 34.092561], [131.394786, 34.093078], [131.394739, 34.093125], [131.39486, 34.093251]]]}}, {"type": "Feature", "properties": {"name": "ローソン", "polygon_uuid": "053b33df-b245-4b1b-93be-9a0faecdf77b", "point_lng": 131.3982195, "point_lat": 34.093144}, "geometry": {"type": "Polygon", "coordinates": [[[131.398348, 34.093169], [131.398294, 34.093231], [131.398086, 34.09312], [131.39815, 34.093056], [131.398348, 34.093169]]]}}, {"type": "Feature", "properties": {"name": "専門学校", "polygon_uuid": "9f35d642-0b68-4161-9eb6-b7a21811978e", "point_lng": 131.39762925, "point_lat": 34.0920915}, "geometry": {"type": "Polygon", "coordinates": [[[131.39784, 34.091993], [131.397605, 34.092302], [131.397409, 34.092188], [131.397663, 34.091883], [131.39784, 34.091993]]]}}, {"type": "Feature", "properties": {"name": "kitayobi", "polygon_uuid": "3aa5897b-9ee5-4e92-b2b7-ccf6860fc247", "point_lng": 131.395610667, "point_lat": 34.0919405}, "geometry": {"type": "Polygon", "coordinates": [[[131.395835, 34.091918], [131.395745, 34.092058], [131.395557, 34.091954], [131.395514, 34.091993], [131.395432, 34.091951], [131.395581, 34.091769], [131.395835, 34.091918]]]}}]}